NORAD_CAT_ID,OBJECT_NAME,OBJECT_TYPE,EPOCH,MEAN_MOTION,ECCENTRICITY,INCLINATION,RA_OF_ASC_NODE,ARG_OF_PERICENTER,MEAN_ANOMALY,BSTAR,MEAN_MOTION_DOT,MEAN_MOTION_DDOT,TLE_LINE0,TLE_LINE1,TLE_LINE2,SEMIMAJOR_AXIS,PERIOD,APOGEE,PERIGEE,DECAYED
53034.0,STARLINK-4151,PAYLOAD,2023-11-14 14:39:04,15.08843566,0.0001437,53.2176,272.3169,96.4195,263.6961,0.00048115,7.379e-05,0.0,0 STARLINK-4151,1 53034U 22076BA  23318.61047225  .00007379  00000-0  48115-3 0  9994,2 53034  53.2176 272.3169 0001437  96.4195 263.6961 15.08843566 75393,6917.869,95.437,540.729,538.74,0.0
53034.0,STARLINK-4151,PAYLOAD,2023-11-15 03:22:10,15.08839477,0.0001755,53.2184,269.9369,105.4328,254.6858,0.00028443,4.241e-05,0.0,0 STARLINK-4151,1 53034U 22076BA  23319.14039577  .00004241  00000-0  28443-3 0  9991,2 53034  53.2184 269.9369 0001755 105.4328 254.6858 15.08839477 75939,6917.882,95.438,540.961,538.533,0.0
53034.0,STARLINK-4151,PAYLOAD,2023-11-16 06:23:43,15.08848927,0.0001749,53.2188,264.8816,108.2374,251.8808,0.00036914,5.593e-05,0.0,0 STARLINK-4151,1 53034U 22076BA  23320.26647440  .00005593  00000-0  36914-3 0  9993,2 53034  53.2188 264.8816 0001749 108.2374 251.8808 15.08848927 76103,6917.853,95.437,540.928,538.508,0.0
53034.0,STARLINK-4151,PAYLOAD,2023-11-17 03:03:44,15.08846338,0.0001473,53.2172,261.015,83.1068,277.0092,0.00026941,4.003e-05,0.0,0 STARLINK-4151,1 53034U 22076BA  23321.12759793  .00004003  00000-0  26941-3 0  9998,2 53034  53.2172 261.0150 0001473  83.1068 277.0092 15.08846338 76234,6917.861,95.437,540.745,538.707,0.0
53034.0,STARLINK-4151,PAYLOAD,2023-11-17 06:14:30,15.08846001,0.0001525,53.2184,260.4237,81.5572,278.5593,0.00020363,2.955e-05,0.0,0 STARLINK-4151,1 53034U 22076BA  23321.26007658  .00002955  00000-0  20363-3 0  9995,2 53034  53.2184 260.4237 0001525  81.5572 278.5593 15.08846001 75795,6917.862,95.437,540.782,538.672,0.0
53034.0,STARLINK-4151,PAYLOAD,2023-11-18 01:19:08,15.0883648,0.0001544,53.2171,256.8549,62.5965,297.5184,-5.6796e-05,-1.192e-05,0.0,0 STARLINK-4151,1 53034U 22076BA  23322.05495769 -.00001192  00000-0 -56796-4 0  9991,2 53034  53.2171 256.8549 0001544  62.5965 297.5184 15.08836480 76374,6917.891,95.438,540.824,538.688,0.0
53034.0,STARLINK-4151,PAYLOAD,2023-11-18 10:51:37,15.08643997,0.0001396,53.2176,255.0681,126.1392,233.973,-0.002618,-0.00041491,0.0,0 STARLINK-4151,1 53034U 22076BA  23322.45251531 -.00041491  00000-0 -26180-2 0  9990,2 53034  53.2176 255.0681 0001396 126.1392 233.9730 15.08643997 76430,6918.48,95.45,541.31,539.379,0.0
53034.0,STARLINK-4151,PAYLOAD,2023-11-18 20:24:10,15.08448387,0.0001515,53.2174,253.289,106.9679,253.1479,-0.0047213,-0.00073864,0.0,0 STARLINK-4151,1 53034U 22076BA  23322.85012568 -.00073864  00000-0 -47213-2 0  9998,2 53034  53.2174 253.2890 0001515 106.9679 253.1479 15.08448387 76493,6919.078,95.462,541.991,539.894,0.0
53034.0,STARLINK-4151,PAYLOAD,2023-11-18 23:35:06,15.08305319,0.0001213,53.2173,252.6948,48.9107,311.199,-0.0064547,-0.00100115,0.0,0 STARLINK-4151,1 53034U 22076BA  23322.98271317 -.00100115  00000-0 -64547-2 0  9990,2 53034  53.2173 252.6948 0001213  48.9107 311.1990 15.08305319 76518,6919.515,95.471,542.22,540.541,0.0
53034.0,STARLINK-4151,PAYLOAD,2023-11-19 12:18:49,15.0788377,0.0001752,53.2176,250.3184,84.9816,275.1375,-0.010398,-0.00157987,0.0,0 STARLINK-4151,1 53034U 22076BA  23323.51306898 -.00157987  00000-0 -10398-1 0  9996,2 53034  53.2176 250.3184 0001752  84.9816 275.1375 15.07883770 76598,6920.805,95.498,543.882,541.457,0.0
53034.0,STARLINK-4151,PAYLOAD,2023-11-19 22:00:00,15.07216438,0.0001371,53.2154,248.5115,93.9999,297.8258,-0.0019793,-0.00030294,0.0,0 STARLINK-4151,1 53034U 22076BA  23323.91667824 -.00030294  00000-0 -19793-2 0  9999,2 53034  53.2154 248.5115 0001371  93.9999 297.8258 15.07216438 76655,6922.847,95.54,545.662,543.763,0.0
53034.0,STARLINK-4151,PAYLOAD,2023-11-20 14:00:01,15.07177513,0.000137,53.2151,245.5256,91.4428,319.6406,0.0022864,0.00034665,0.0,0 STARLINK-4151,1 53034U 22076BA  23324.58334491  .00034665  00000-0  22864-2 0  9991,2 53034  53.2151 245.5256 0001370  91.4428 319.6406 15.07177513 76753,6922.967,95.543,545.78,543.883,0.0
53034.0,STARLINK-4151,PAYLOAD,2023-11-20 22:00:00,15.07235739,0.0001431,53.2151,244.0335,91.9167,328.7777,-0.0024734,-0.00037766,0.0,0 STARLINK-4151,1 53034U 22076BA  23324.91667824 -.00037766  00000-0 -24734-2 0  9992,2 53034  53.2151 244.0335 0001431  91.9167 328.7777 15.07235739  5779,6922.788,95.539,545.644,543.663,0.0
53034.0,STARLINK-4151,PAYLOAD,2023-11-21 14:00:01,15.07177121,0.0001321,53.2153,241.0474,99.5995,340.3775,0.0032305,0.00049197,0.0,0 STARLINK-4151,1 53034U 22076BA  23325.58334491  .00049197  00000-0  32305-2 0  9999,2 53034  53.2153 241.0474 0001321  99.5995 340.3775 15.07177121 76904,6922.968,95.543,545.747,543.918,0.0
53034.0,STARLINK-4151,PAYLOAD,2023-11-22 00:00:00,15.07203139,0.0001364,53.2153,239.1827,94.9228,87.0914,0.004851,0.00074334,0.0,0 STARLINK-4151,1 53034U 22076BA  23326.00001157  .00074334  00000-0  48510-2 0  9993,2 53034  53.2153 239.1827 0001364  94.9228  87.0914 15.07203139  5786,6922.888,95.541,545.697,543.809,0.0
53034.0,STARLINK-4151,PAYLOAD,2023-11-22 06:00:00,15.07120352,0.0001402,53.2154,238.0637,91.035,8.2383,0.035676,0.00574377,0.0,0 STARLINK-4151,1 53034U 22076BA  23326.25001157  .00574377  00000-0  35676-1 0  9990,2 53034  53.2154 238.0637 0001402  91.0350   8.2383 15.07120352 77005,6923.142,95.546,545.977,544.036,0.0
53034.0,STARLINK-4151,PAYLOAD,2023-11-22 14:00:01,15.07479445,0.0001236,53.2158,236.569,63.6382,45.3869,0.032652,0.0053381,0.0,0 STARLINK-4151,1 53034U 22076BA  23326.58334491  .00533810  00000-0  32652-1 0  9994,2 53034  53.2158 236.5690 0001236  63.6382  45.3869 15.07479445  5828,6922.042,95.524,544.763,543.052,0.0
53034.0,STARLINK-4151,PAYLOAD,2023-11-22 22:00:00,15.07819203,0.0001366,53.216,235.076,36.4753,82.7124,0.031086,0.00511491,0.0,0 STARLINK-4151,1 53034U 22076BA  23326.91667824  .00511491  00000-0  31086-1 0  9991,2 53034  53.2160 235.0760 0001366  36.4753  82.7124 15.07819203 77106,6921.002,95.502,543.813,541.922,0.0
53034.0,STARLINK-4151,PAYLOAD,2023-11-23 00:00:00,15.0789655,0.0001547,53.2159,234.703,29.3594,182.4342,0.031268,0.00515834,0.0,0 STARLINK-4151,1 53034U 22076BA  23327.00001157  .00515834  00000-0  31268-1 0  9990,2 53034  53.2159 234.7030 0001547  29.3594 182.4342 15.07896550  5836,6920.766,95.497,543.701,541.56,0.0
53034.0,STARLINK-4151,PAYLOAD,2023-11-23 00:39:17,15.07617376,0.0001382,53.2169,234.5801,100.5547,259.56,0.0070479,0.00109904,0.0,0 STARLINK-4151,1 53034U 22076BA  23327.02728037  .00109904  00000-0  70479-2 0  9990,2 53034  53.2169 234.5801 0001382 100.5547 259.5600 15.07617376 77129,6921.62,95.515,544.442,542.528,0.0
53034.0,STARLINK-4151,PAYLOAD,2023-11-23 08:36:26,15.07804295,0.0001454,53.2166,233.0923,165.4821,194.6213,0.0085388,0.00134358,0.0,0 STARLINK-4151,1 53034U 22076BA  23327.35864551  .00134358  00000-0  85388-2 0  9994,2 53034  53.2166 233.0923 0001454 165.4821 194.6213 15.07804295 77172,6921.048,95.503,543.919,541.907,0.0
53034.0,STARLINK-4151,PAYLOAD,2023-11-23 21:19:46,15.08185092,0.000186,53.2166,230.718,63.5291,296.5892,0.010993,0.00175894,0.0,0 STARLINK-4151,1 53034U 22076BA  23327.88873067  .00175894  00000-0  10993-1 0  9993,2 53034  53.2166 230.7180 0001860  63.5291 296.5892 15.08185092 76791,6919.883,95.479,543.035,540.461,0.0
53034.0,STARLINK-4151,PAYLOAD,2023-11-24 06:00:02,15.08810707,0.0001631,53.2163,229.0949,44.4724,119.2481,0.00087486,0.00013652,0.0,0 STARLINK-4151,1 53034U 22076BA  23328.25002315  .00013652  00000-0  87486-3 0  9991,2 53034  53.2163 229.0949 0001631  44.4724 119.2481 15.08810707 77308,6917.97,95.439,540.963,538.707,0.0
53034.0,STARLINK-4151,PAYLOAD,2023-11-24 14:00:01,15.08785639,0.0001448,53.2166,227.597,50.8387,124.3631,0.0041487,0.00066261,0.0,0 STARLINK-4151,1 53034U 22076BA  23328.58334491  .00066261  00000-0  41487-2 0  9994,2 53034  53.2166 227.5970 0001448  50.8387 124.3631 15.08785639 77354,6918.047,95.441,540.913,538.91,0.0
53034.0,STARLINK-4151,PAYLOAD,2023-11-24 22:00:00,15.08850388,0.0001533,53.2167,226.1019,51.845,134.9118,-0.0018171,-0.00029099,0.0,0 STARLINK-4151,1 53034U 22076BA  23328.91667824 -.00029099  00000-0 -18171-2 0  9994,2 53034  53.2167 226.1019 0001533  51.8450 134.9118 15.08850388  5825,6917.849,95.437,540.774,538.653,0.0
53034.0,STARLINK-4151,PAYLOAD,2023-11-25 06:00:00,15.088301,0.0001556,53.2163,224.606,49.0464,149.307,0.0021487,0.00034065,0.0,0 STARLINK-4151,1 53034U 22076BA  23329.25001157  .00034065  00000-0  21487-2 0  9994,2 53034  53.2163 224.6060 0001556  49.0464 149.3070 15.08830100 77454,6917.911,95.438,540.852,538.699,0.0
53034.0,STARLINK-4151,PAYLOAD,2023-11-25 14:00:01,15.08835233,0.000136,53.2162,223.1081,58.7135,151.2488,0.0045545,0.00072938,0.0,0 STARLINK-4151,1 53034U 22076BA  23329.58334491  .00072938  00000-0  45545-2 0  9992,2 53034  53.2162 223.1081 0001360  58.7135 151.2488 15.08835233  5723,6917.895,95.438,540.701,538.819,0.0
53034.0,STARLINK-4151,PAYLOAD,2023-11-26 00:00:00,15.08919441,0.0001391,53.2161,221.2393,63.5683,250.9261,-0.0098293,-0.00153734,0.0,0 STARLINK-4151,1 53034U 22076BA  23330.00001157 -.00153734  00000-0 -98293-2 0  9995,2 53034  53.2161 221.2393 0001391  63.5683 250.9261 15.08919441  5790,6917.638,95.433,540.465,538.54,0.0
53034.0,STARLINK-4151,PAYLOAD,2023-11-26 06:00:00,15.08819177,0.0001303,53.2156,220.117,67.1245,166.0993,-0.0003081,-5.185e-05,0.0,0 STARLINK-4151,1 53034U 22076BA  23330.25001157 -.00005185  00000-0 -30810-3 0  9990,2 53034  53.2156 220.1170 0001303  67.1245 166.0993 15.08819177 77616,6917.944,95.439,540.71,538.908,0.0
53034.0,STARLINK-4151,PAYLOAD,2023-11-26 14:00:01,15.08799715,0.0001182,53.2154,218.619,95.2007,149.6344,0.0059407,0.00095435,0.0,0 STARLINK-4151,1 53034U 22076BA  23330.58334491  .00095435  00000-0  59407-2 0  9993,2 53034  53.2154 218.6190 0001182  95.2007 149.6344 15.08799715 77668,6918.004,95.44,540.686,539.051,0.0
